{
    "links": {
        "self": "http://www.neowsapp.com/rest/v1/neo/54016339?api_key=iIulBulltgU6a56xZRHN4H3l9WmuAYTsLGpBGhQ2"
    },
    "id": "54016339",
    "neo_reference_id": "54016339",
    "name": "(2020 FD4)",
    "designation": "2020 FD4",
    "nasa_jpl_url": "http://ssd.jpl.nasa.gov/sbdb.cgi?sstr=54016339",
    "absolute_magnitude_h": 23.799,
    "estimated_diameter": {
        "kilometers": {
            "estimated_diameter_min": 0.0462120226,
            "estimated_diameter_max": 0.1033332238
        },
        "meters": {
            "estimated_diameter_min": 46.2120225515,
            "estimated_diameter_max": 103.333223803
        },
        "miles": {
            "estimated_diameter_min": 0.0287148107,
            "estimated_diameter_max": 0.0642082686
        },
        "feet": {
            "estimated_diameter_min": 151.614252068,
            "estimated_diameter_max": 339.0197739818
        }
    },
    "is_potentially_hazardous_asteroid": false,
    "close_approach_data": [
        {
            "close_approach_date": "2019-12-28",
            "close_approach_date_full": "2019-Dec-28 06:35",
            "epoch_date_close_approach": 1577514900000,
            "relative_velocity": {
                "kilometers_per_second": "28.2245291125",
                "kilometers_per_hour": "101608.3048051127",
                "miles_per_hour": "63135.4491718213"
            },
            "miss_distance": {
                "astronomical": "0.1454236746",
                "lunar": "56.5698094194",
                "kilometers": "21755071.967733102",
                "miles": "13517974.8839247276"
            },
            "orbiting_body": "Venus"
        },
        {
            "close_approach_date": "2020-03-06",
            "close_approach_date_full": "2020-Mar-06 14:00",
            "epoch_date_close_approach": 1583503200000,
            "relative_velocity": {
                "kilometers_per_second": "22.4852999913",
                "kilometers_per_hour": "80947.0799686562",
                "miles_per_hour": "50297.3675505242"
            },
            "miss_distance": {
                "astronomical": "0.055001982",
                "lunar": "21.395770998",
                "kilometers": "8228179.35297834",
                "miles": "5112753.568407492"
            },
            "orbiting_body": "Earth"
        }
    ],
    "orbital_data": {
        "orbit_id": "1",
        "orbit_determination_date": "2020-03-25 00:42:09",
        "first_observation_date": "2020-03-22",
        "last_observation_date": "2020-03-24",
        "data_arc_in_days": 2,
        "observations_used": 10,
        "orbit_uncertainty": "9",
        "minimum_orbit_intersection": ".038899",
        "jupiter_tisserand_invariant": "2.950",
        "epoch_osculation": "2458932.5",
        "eccentricity": ".7848616474532952",
        "semi_major_axis": "2.482988801178385",
        "inclination": "3.335787167644475",
        "ascending_node_longitude": "299.9992487936861",
        "orbital_period": "1429.09325041905",
        "perihelion_distance": ".5341861200774352",
        "perihelion_argument": "135.5722670145372",
        "aphelion_distance": "4.431791482279334",
        "perihelion_time": "2458871.103031300290",
        "mean_anomaly": "15.46638662341622",
        "mean_motion": ".2519079842371643",
        "equinox": "J2000",
        "orbit_class": {
            "orbit_class_type": "APO",
            "orbit_class_description": "Near-Earth asteroid orbits which cross the Earth’s orbit similar to that of 1862 Apollo",
            "orbit_class_range": "a (semi-major axis) > 1.0 AU; q (perihelion) < 1.017 AU"
        }
    },
    "is_sentry_object": false
}